NORAD_CAT_ID,OBJECT_NAME,OBJECT_TYPE,EPOCH,MEAN_MOTION,ECCENTRICITY,INCLINATION,RA_OF_ASC_NODE,ARG_OF_PERICENTER,MEAN_ANOMALY,BSTAR,MEAN_MOTION_DOT,MEAN_MOTION_DDOT,TLE_LINE0,TLE_LINE1,TLE_LINE2,SEMIMAJOR_AXIS,PERIOD,APOGEE,PERIGEE,DECAYED
53748.0,STARLINK-4669,PAYLOAD,2023-11-10 18:43:57,15.08840385,0.0001346,53.2165,119.6801,89.5018,270.6128,8.0848e-05,9.99e-06,0.0,0 STARLINK-4669,1 53748U 22107BA  23314.78053211  .00000999  00000-0  80848-4 0  9998,2 53748  53.2165 119.6801 0001346  89.5018 270.6128 15.08840385 65506,6917.879,95.438,540.675,538.813,0.0
53748.0,STARLINK-4669,PAYLOAD,2023-11-11 10:37:49,15.08841149,0.0001339,53.2167,116.705,85.8205,274.294,0.00010909,1.449e-05,0.0,0 STARLINK-4669,1 53748U 22107BA  23315.44293264  .00001449  00000-0  10909-3 0  9997,2 53748  53.2167 116.7050 0001339  85.8205 274.2940 15.08841149 66389,6917.877,95.437,540.668,538.816,0.0
53748.0,STARLINK-4669,PAYLOAD,2023-11-11 18:34:46,15.08822254,0.0001509,53.2172,115.219,97.95,262.1664,0.00096057,0.00015025,0.0,0 STARLINK-4669,1 53748U 22107BA  23315.77414397  .00015025  00000-0  96057-3 0  9998,2 53748  53.2172 115.2190 0001509  97.9500 262.1664 15.08822254 65659,6917.935,95.439,540.844,538.756,0.0
53748.0,STARLINK-4669,PAYLOAD,2023-11-12 10:28:36,15.08843732,0.0001474,53.2166,112.2453,89.3293,270.7868,0.00018012,2.58e-05,0.0,0 STARLINK-4669,1 53748U 22107BA  23316.43653155  .00002580  00000-0  18012-3 0  9996,2 53748  53.2166 112.2453 0001474  89.3293 270.7868 15.08843732 65752,6917.869,95.437,540.754,538.714,0.0
53748.0,STARLINK-4669,PAYLOAD,2023-11-12 16:50:08,15.08848004,0.0001464,53.2168,111.0556,91.5787,268.5372,0.00022594,3.31e-05,0.0,0 STARLINK-4669,1 53748U 22107BA  23316.70148918  .00003310  00000-0  22594-3 0  9994,2 53748  53.2168 111.0556 0001464  91.5787 268.5372 15.08848004 66570,6917.856,95.437,540.734,538.708,0.0
53748.0,STARLINK-4669,PAYLOAD,2023-11-13 13:30:09,15.08848441,0.0001432,53.2166,107.1896,90.6778,269.4378,0.0001306,1.792e-05,0.0,0 STARLINK-4669,1 53748U 22107BA  23317.56260640  .00001792  00000-0  13060-3 0  9996,2 53748  53.2166 107.1896 0001432  90.6778 269.4378 15.08848441 66702,6917.855,95.437,540.71,538.729,0.0
53748.0,STARLINK-4669,PAYLOAD,2023-11-14 10:10:10,15.08840145,0.0001322,53.2157,103.3245,86.9479,273.1664,4.0217e-05,3.52e-06,0.0,0 STARLINK-4669,1 53748U 22107BA  23318.42372911  .00000352  00000-0  40217-4 0  9993,2 53748  53.2157 103.3245 0001322  86.9479 273.1664 15.08840145 66053,6917.88,95.438,540.659,538.83,0.0
53748.0,STARLINK-4669,PAYLOAD,2023-11-14 13:20:56,15.08836677,0.0001316,53.2169,102.7295,91.6342,268.4801,1.5805e-05,-3.6e-07,0.0,0 STARLINK-4669,1 53748U 22107BA  23318.55621308 -.00000036  00000-0  15805-4 0  9999,2 53748  53.2169 102.7295 0001316  91.6342 268.4801 15.08836677 66852,6917.891,95.438,540.666,538.845,0.0
53748.0,STARLINK-4669,PAYLOAD,2023-11-14 19:42:29,15.08838845,0.0001311,53.217,101.5398,91.2308,268.8834,6.6689e-06,-1.82e-06,0.0,0 STARLINK-4669,1 53748U 22107BA  23318.82117172 -.00000182  00000-0  66689-5 0  9997,2 53748  53.2170 101.5398 0001311  91.2308 268.8834 15.08838845 66891,6917.884,95.438,540.656,538.842,0.0
53748.0,STARLINK-4669,PAYLOAD,2023-11-15 13:11:43,15.08839655,0.0001242,53.2171,98.2679,98.7797,261.3336,3.2041e-05,2.22e-06,0.0,0 STARLINK-4669,1 53748U 22107BA  23319.54981045  .00000222  00000-0  32041-4 0  9993,2 53748  53.2171  98.2679 0001242  98.7797 261.3336 15.08839655 67002,6917.881,95.438,540.606,538.887,0.0
53748.0,STARLINK-4669,PAYLOAD,2023-11-15 16:22:29,15.08843922,0.0001272,53.2178,97.6734,89.3299,270.7839,5.4752e-05,5.84e-06,0.0,0 STARLINK-4669,1 53748U 22107BA  23319.68228770  .00000584  00000-0  54752-4 0  9991,2 53748  53.2178  97.6734 0001272  89.3299 270.7839 15.08843922 66249,6917.868,95.437,540.613,538.853,0.0
53748.0,STARLINK-4669,PAYLOAD,2023-11-16 17:48:40,15.08836792,0.0001472,53.2164,92.9177,100.7214,259.3944,2.3058e-05,7.9e-07,0.0,0 STARLINK-4669,1 53748U 22107BA  23320.74213491  .00000079  00000-0  23058-4 0  9998,2 53748  53.2164  92.9177 0001472 100.7214 259.3944 15.08836792 66405,6917.89,95.438,540.774,538.737,0.0
53748.0,STARLINK-4669,PAYLOAD,2023-11-17 12:53:18,15.08838336,0.0001229,53.2186,89.347,76.7077,283.4052,3.0253e-05,1.94e-06,0.0,0 STARLINK-4669,1 53748U 22107BA  23321.53701703  .00000194  00000-0  30253-4 0  9997,2 53748  53.2186  89.3470 0001229  76.7077 283.4052 15.08838336 67308,6917.885,95.438,540.601,538.9,0.0
53748.0,STARLINK-4669,PAYLOAD,2023-11-17 17:39:27,15.08841875,0.0001288,53.2179,88.4554,81.6256,278.4882,6.1881e-05,6.97e-06,0.0,0 STARLINK-4669,1 53748U 22107BA  23321.73573389  .00000697  00000-0  61881-4 0  9995,2 53748  53.2179  88.4554 0001288  81.6256 278.4882 15.08841875 67332,6917.875,95.437,540.631,538.849,0.0
53748.0,STARLINK-4669,PAYLOAD,2023-11-18 12:44:05,15.08838393,0.0001455,53.2187,84.8883,92.4589,267.657,7.2988e-05,8.74e-06,0.0,0 STARLINK-4669,1 53748U 22107BA  23322.53061714  .00000874  00000-0  72988-4 0  9995,2 53748  53.2187  84.8883 0001455  92.4589 267.6570 15.08838393 66672,6917.885,95.438,540.757,538.744,0.0
53748.0,STARLINK-4669,PAYLOAD,2023-11-18 17:30:14,15.08840782,0.0001482,53.2176,83.9958,93.6877,266.4284,8.77e-05,1.108e-05,0.0,0 STARLINK-4669,1 53748U 22107BA  23322.72933514  .00001108  00000-0  87700-4 0  9991,2 53748  53.2176  83.9958 0001482  93.6877 266.4284 15.08840782 67480,6917.878,95.438,540.768,538.718,0.0
53748.0,STARLINK-4669,PAYLOAD,2023-11-19 14:10:15,15.08838789,0.000159,53.2191,80.1292,93.6337,266.4837,5.0329e-05,5.13e-06,0.0,0 STARLINK-4669,1 53748U 22107BA  23323.59045818  .00000513  00000-0  50329-4 0  9994,2 53748  53.2191  80.1292 0001590  93.6337 266.4837 15.08838789 67611,6917.884,95.438,540.849,538.649,0.0
53748.0,STARLINK-4669,PAYLOAD,2023-11-19 15:45:38,15.0883897,0.0001469,53.2187,79.832,90.4262,269.6899,3.6922e-05,3e-06,0.0,0 STARLINK-4669,1 53748U 22107BA  23323.65669840  .00000300  00000-0  36922-4 0  9995,2 53748  53.2187  79.8320 0001469  90.4262 269.6899 15.08838970 66849,6917.884,95.438,540.765,538.732,0.0
53748.0,STARLINK-4669,PAYLOAD,2023-11-20 14:01:01,15.08849911,0.0001446,53.219,75.6695,90.403,269.7127,9.4726e-05,1.22e-05,0.0,0 STARLINK-4669,1 53748U 22107BA  23324.58404924  .00001220  00000-0  94726-4 0  9996,2 53748  53.2190  75.6695 0001446  90.4030 269.7127 15.08849911 67764,6917.85,95.437,540.715,538.715,0.0
53748.0,STARLINK-4669,PAYLOAD,2023-11-20 18:47:10,15.08855084,0.0001474,53.2187,74.7774,89.5017,270.6144,0.00013905,1.927e-05,0.0,0 STARLINK-4669,1 53748U 22107BA  23324.78276374  .00001927  00000-0  13905-3 0  9997,2 53748  53.2187  74.7774 0001474  89.5017 270.6144 15.08855084 67019,6917.834,95.437,540.719,538.68,0.0
53748.0,STARLINK-4669,PAYLOAD,2023-11-21 01:08:44,15.08838228,0.0001353,53.2193,73.5888,89.5823,270.5325,2.8542e-05,1.66e-06,0.0,0 STARLINK-4669,1 53748U 22107BA  23325.04773633  .00000166  00000-0  28542-4 0  9995,2 53748  53.2193  73.5888 0001353  89.5823 270.5325 15.08838228 67055,6917.886,95.438,540.687,538.815,0.0
53748.0,STARLINK-4669,PAYLOAD,2023-11-21 13:51:49,15.08845267,0.0001483,53.2191,71.2102,90.3386,269.7776,0.00013637,1.883e-05,0.0,0 STARLINK-4669,1 53748U 22107BA  23325.57765215  .00001883  00000-0  13637-3 0  9995,2 53748  53.2191  71.2102 0001483  90.3386 269.7776 15.08845267 67911,6917.864,95.437,540.755,538.703,0.0
53748.0,STARLINK-4669,PAYLOAD,2023-11-22 13:42:35,15.08859897,0.0001412,53.2181,66.7502,87.662,272.4534,0.00022066,3.227e-05,0.0,0 STARLINK-4669,1 53748U 22107BA  23326.57124355  .00003227  00000-0  22066-3 0  9990,2 53748  53.2181  66.7502 0001412  87.6620 272.4534 15.08859897 68069,6917.82,95.436,540.661,538.708,0.0
53748.0,STARLINK-4669,PAYLOAD,2023-11-23 11:58:00,15.08837353,0.0001693,53.2198,62.5877,116.3761,243.7405,-4.8446e-06,-3.65e-06,0.0,0 STARLINK-4669,1 53748U 22107BA  23327.49861308 -.00000365  00000-0 -48446-5 0  9992,2 53748  53.2198  62.5877 0001693 116.3761 243.7405 15.08837353 67423,6917.888,95.438,540.925,538.582,0.0
53748.0,STARLINK-4669,PAYLOAD,2023-11-23 13:33:23,15.08837391,0.0001463,53.2191,62.2886,108.9929,251.1222,1.3863e-05,-6.7e-07,0.0,0 STARLINK-4669,1 53748U 22107BA  23327.56485346 -.00000067  00000-0  13863-4 0  9996,2 53748  53.2191  62.2886 0001463 108.9929 251.1222 15.08837391 68211,6917.888,95.438,540.765,538.741,0.0
53748.0,STARLINK-4669,PAYLOAD,2023-11-24 11:48:48,15.08829448,0.0001515,53.219,58.124,109.0395,251.0762,-5.5305e-05,-1.168e-05,0.0,0 STARLINK-4669,1 53748U 22107BA  23328.49222380 -.00001168  00000-0 -55305-4 0  9997,2 53748  53.2190  58.1240 0001515 109.0395 251.0762 15.08829448 67575,6917.913,95.438,540.826,538.73,0.0
53748.0,STARLINK-4669,PAYLOAD,2023-11-24 16:34:57,15.08836596,0.0001384,53.2189,57.2303,89.2927,270.8223,0.000143,1.988e-05,0.0,0 STARLINK-4669,1 53748U 22107BA  23328.69094158  .00001988  00000-0  14300-3 0  9996,2 53748  53.2189  57.2303 0001384  89.2927 270.8223 15.08836596 68380,6917.891,95.438,540.713,538.798,0.0
53748.0,STARLINK-4669,PAYLOAD,2023-11-25 13:14:58,15.08851174,0.0001797,53.2197,53.372,83.4735,276.6462,0.00047255,7.243e-05,0.0,0 STARLINK-4669,1 53748U 22107BA  23329.55206438  .00007243  00000-0  47255-3 0  9993,2 53748  53.2197  53.3720 0001797  83.4735 276.6462 15.08851174 68513,6917.846,95.437,540.954,538.468,0.0
53748.0,STARLINK-4669,PAYLOAD,2023-11-26 13:05:44,15.08864374,0.0001936,53.2194,48.9092,61.4317,298.687,0.00042513,6.489e-05,0.0,0 STARLINK-4669,1 53748U 22107BA  23330.54565315  .00006489  00000-0  42513-3 0  9999,2 53748  53.2194  48.9092 0001936  61.4317 298.6870 15.08864374 68668,6917.806,95.436,541.01,538.332,0.0
53748.0,STARLINK-4669,PAYLOAD,2023-11-26 14:41:07,15.08869487,0.0001646,53.2195,48.6066,71.7022,288.4149,0.00049261,7.567e-05,0.0,0 STARLINK-4669,1 53748U 22107BA  23330.61188842  .00007567  00000-0  49261-3 0  9998,2 53748  53.2195  48.6066 0001646  71.7022 288.4149 15.08869487 67892,6917.79,95.436,540.794,538.517,0.0
